QIANFAN-1               
1 60379U 24140A   25214.56090485  .00000132  00000+0  18606-3 0  9996
2 60379  88.9843 312.9418 0016159 231.3992 128.5713 13.50955551 49500
QIANFAN-2               
1 60380U 24140B   25214.51562351  .00000117  00000+0  16233-3 0  9996
2 60380  88.9829 312.8042 0012438 199.8533 160.2136 13.50961985 49558
QIANFAN-3               
1 60381U 24140C   25214.52379167  .00000122  00000+0  17009-3 0  9997
2 60381  88.9822 312.9457 0013102 213.6518 146.3802 13.50960091 49462
QIANFAN-4               
1 60382U 24140D   25214.57325965  .00000121  00000+0  16880-3 0  9995
2 60382  88.9846 312.8051 0012578 202.5389 157.5211 13.50955670 49596
QIANFAN-5               
1 60383U 24140E   25214.54860805  .00000117  00000+0  16275-3 0  9993
2 60383  88.9821 312.9689 0013979 226.2781 133.7214 13.50958702 49456
QIANFAN-6               
1 60384U 24140F   25214.56908701  .00000113  00000+0  15611-3 0  9993
2 60384  88.9848 312.6778 0012469 208.7880 151.2585 13.50955217 49656
QIANFAN-7               
1 60385U 24140G   25214.61746394  .00000599  00000+0  23766-3 0  9996
2 60385  88.9849 309.2281 0017494 113.6864 246.6169 14.27497842 51546
QIANFAN-8               
1 60386U 24140H   25214.57740714  .00000115  00000+0  16000-3 0  9999
2 60386  88.9850 312.9121 0015817 213.0346 146.9818 13.50959219 49502
